ONEWEB-0428             
1 51629U 22012H   23295.87482040  .00000634  00000+0  17808-2 0  9992
2 51629  87.8910 228.5550 0001902  64.3312 295.8011 13.10376789 82478
ONEWEB-0431             
1 51630U 22012J   23295.84381925 -.00000588  00000+0 -17196-2 0  9991
2 51630  87.8921 228.5651 0001367  55.3111 304.8145 13.10366247 82529
ONEWEB-0434             
1 51631U 22012K   23296.05029933  .00000377  00000+0  10444-2 0  9997
2 51631  87.8905 228.5314 0002071  69.9839 290.1511 13.10369404 83825
ONEWEB-0435             
1 51632U 22012L   23295.82933220 -.00000033  00000+0 -13129-3 0  9990
2 51632  87.8904 228.5647 0002022  62.3406 297.7926 13.10368768 83776
ONEWEB-0436             
1 51633U 22012M   23295.79881802  .00000155  00000+0  36726-3 0  9996
2 51633  87.9193 198.3280 0001966  69.3230 290.8112 13.17648112 86150
ONEWEB-0438             
1 51634U 22012N   23295.81311231  .00000712  00000+0  20045-2 0  9999
2 51634  87.8903 228.5688 0002099  77.3605 282.7756 13.10372989 82520
ONEWEB-0439             
1 51635U 22012P   23296.04541516  .00001416  00000+0  40200-2 0  9994
2 51635  87.8904 228.5055 0001901  73.9347 286.1989 13.10369689 83818
ONEWEB-0442             
1 51636U 22012Q   23295.79038022  .00000118  00000+0  26957-3 0  9991
2 51636  87.9258 198.3473 0001787 103.2244 256.9087 13.17649398 86143
ONEWEB-0443             
1 51637U 22012R   23296.18904247  .00000036  00000+0  60330-4 0  9990
2 51637  87.9255 198.2739 0002314  65.9917 294.1456 13.17651525 87536
ONEWEB-0444             
1 51638U 22012S   23295.88295757  .00000835  00000+0  23568-2 0  9993
2 51638  87.8910 228.5662 0002063  70.5637 289.5713 13.10372998 82523
ONEWEB-0445             
1 51639U 22012T   23295.82770312  .00000083  00000+0  20171-3 0  9996
2 51639  87.8906 228.5633 0001734  88.9020 271.2306 13.10370629 82525
ONEWEB-0446             
1 51640U 22012U   23295.88132322  .00000833  00000+0  23504-2 0  9992
2 51640  87.8909 228.5578 0001740  75.8875 284.2445 13.10375078 82518
ONEWEB-0448             
1 51641U 22012V   23295.88619942  .00000724  00000+0  20372-2 0  9990
2 51641  87.8908 228.5584 0002085  71.1422 288.9931 13.10373955 82484
ONEWEB-0449             
1 51642U 22012W   23295.89106747  .00000604  00000+0  16927-2 0  9994
2 51642  87.8908 228.5611 0002083  81.1197 279.0166 13.10375173 82490
ONEWEB-0451             
1 51643U 22012X   23295.79460051  .00000151  00000+0  35469-3 0  9995
2 51643  87.9194 198.3327 0002128  73.7148 286.4217 13.17653725 86133
ONEWEB-0452             
1 51644U 22012Y   23295.79249425  .00000123  00000+0  28456-3 0  9993
2 51644  87.9257 198.3479 0002224  80.7426 279.3956 13.17651531 86141
ONEWEB-0456             
1 51646U 22012AA  23296.05354116  .00000169  00000+0  44779-3 0  9995
2 51646  87.8904 228.5116 0001802  64.7234 295.4080 13.10368501 83841
ONEWEB-0457             
1 51647U 22012AB  23295.87808138  .00000644  00000+0  18097-2 0  9994
2 51647  87.8911 228.5496 0002086  86.7350 273.4016 13.10374714 83836
ONEWEB-0458             
1 51648U 22012AC  23296.20464201  .00000730  00000+0  20562-2 0  9998
2 51648  87.8906 228.4978 0002167  72.6618 287.4746 13.10368907 83838
ONEWEB-0461             
1 51649U 22012AD  23295.96547718  .00000008  00000+0 -12051-4 0  9991
2 51649  87.9245 198.2934 0001922  79.1165 281.0183 13.17646950 86381
ONEWEB-0463             
1 51650U 22012AE  23295.79670411  .00000001  00000+0 -30585-4 0  9996
2 51650  87.9257 198.3618 0001812  79.8639 280.2696 13.17648088 86145
ONEWEB-0464             
1 51651U 22012AF  23295.81958807  .00000519  00000+0  14503-2 0  9991
2 51651  87.8906 228.5625 0001919  60.6273 299.5045 13.10371494 82504
ONEWEB-0468             
1 51652U 22012AG  23295.90245385  .00000105  00000+0  26378-3 0  9997
2 51652  87.8905 228.5392 0001999  72.6966 287.4380 13.10370492 82498
ONEWEB-0473             
1 51653U 22012AH  23295.81147462  .00000627  00000+0  17588-2 0  9996
2 51653  87.8908 228.5613 0002052  71.0030 289.1319 13.10372357 82486
ONEWEB-0474             
1 51654U 22012AJ  23295.87969855  .00001410  00000+0  40019-2 0  9997
2 51654  87.8983 228.5370 0002152  58.1326 302.0011 13.10373281 82486
ONEWEB-0475             
1 51655U 22012AK  23295.95912508  .00000123  00000+0  28372-3 0  9999
2 51655  87.9258 198.3076 0002209  67.0890 293.0475 13.17651175 86180
ONEWEB-0490             
1 54113U 22138A   23296.10576006 -.00000080  00000+0 -23126-3 0  9993
2 54113  87.9189 137.6610 0001650  77.3254 282.8063 13.19727779 50010
ONEWEB-0492             
1 54114U 22138B   23295.82777152  .00000060  00000+0  11775-3 0  9990
2 54114  87.9189 137.7118 0001682  69.1026 291.0286 13.19724441 49117
ONEWEB-0495             
1 54115U 22138C   23295.80566127  .00000079  00000+0  16536-3 0  9997
2 54115  87.9190 137.7277 0001947  69.0279 291.1062 13.19727950 49097
ONEWEB-0497             
1 54116U 22138D   23295.81829326 -.00000415  00000+0 -10683-2 0  9994
2 54116  87.9190 137.7181 0002287  69.7194 290.4184 13.19727616 49088
ONEWEB-0499             
1 54117U 22138E   23295.80091859  .00000051  00000+0  95727-4 0  9994
2 54117  87.9187 137.7189 0002303  86.4717 273.6679 13.19725980 49094
ONEWEB-0500             
1 54118U 22138F   23295.80408228  .00000127  00000+0  28588-3 0  9991
2 54118  87.9194 137.7152 0001602  78.5691 281.5621 13.19724967 49108
ONEWEB-0501             
1 54119U 22138G   23295.83412490 -.00002466  00000+0 -61967-2 0  9998
2 54119  87.9197 137.7105 0002272  72.8539 287.2843 13.19703172 49083
ONEWEB-0502             
1 54120U 22138H   23296.12313249  .00000160  00000+0  36818-3 0  9990
2 54120  87.9191 137.6456 0001937  74.3882 285.7464 13.19726827 50011
ONEWEB-0503             
1 54121U 22138J   23296.11208375  .00000063  00000+0  12552-3 0  9994
2 54121  87.9189 137.6560 0001930  94.1979 265.9374 13.19726136 50007
ONEWEB-0504             
1 54122U 22138K   23295.87199270  .00000075  00000+0  15479-3 0  9994
2 54122  87.9190 137.7041 0002104  79.5368 280.6002 13.19723478 49116
ONEWEB-0505             
1 54123U 22138L   23295.94465079  .00000059  00000+0  11428-3 0  9998
2 54123  87.9190 137.6879 0002140  82.0837 278.0538 13.19722852 49104
ONEWEB-0506             
1 54124U 22138M   23295.84355880  .00000129  00000+0  28983-3 0  9998
2 54124  87.9189 137.7048 0001900  74.0414 286.0928 13.19727797 49089
ONEWEB-0507             
1 54125U 22138N   23295.93991861  .00001995  00000+0  49496-2 0  9997
2 54125  87.9140 137.6950 0002243  79.1440 280.9945 13.19720924 49148
ONEWEB-0508             
1 54126U 22138P   23295.93676474  .00000119  00000+0  26393-3 0  9997
2 54126  87.9187 137.6932 0002075  66.2616 293.8734 13.19725565 49128
ONEWEB-0509             
1 54127U 22138Q   23295.60820859  .00000124  00000+0  27634-3 0  9995
2 54127  87.9187 137.7558 0001843  78.9967 281.1373 13.19727748 49051
ONEWEB-0510             
1 54128U 22138R   23295.88445774 -.00000814  00000+0 -20340-2 0  9999
2 54128  87.9203 107.1616 0001382  80.1536 279.9754 13.20773258 51467
ONEWEB-0511             
1 54129U 22138S   23295.83250816  .00000571  00000+0  13929-2 0  9999
2 54129  87.9200 137.7135 0002455  90.5818 269.5596 13.19721789 49118
ONEWEB-0512             
1 54130U 22138T   23296.12787403 -.00007285  00000+0 -18235-1 0  9996
2 54130  87.9189 137.6522 0002233  65.7333 294.4033 13.19760460 49993
ONEWEB-0513             
1 54131U 22138U   23295.79538259 -.00000021  00000+0 -85857-4 0  9990
2 54131  87.9187 137.7227 0002418  75.2310 284.9091 13.19727316 48968
ONEWEB-0514             
1 54132U 22138V   23295.84040303  .00000121  00000+0  26968-3 0  9991
2 54132  87.9190 137.7132 0001783  84.3631 275.7704 13.19724091 49102
ONEWEB-0515             
1 54133U 22138W   23295.94760025  .00000065  00000+0  12753-3 0  9997
2 54133  87.9148 107.1680 0000774 102.2280 257.8940 13.20771319 51499
ONEWEB-0516             
1 54134U 22138X   23296.11840528  .00000138  00000+0  31238-3 0  9995
2 54134  87.9190 137.6537 0001670  78.1978 281.9342 13.19725971 50019
ONEWEB-0517             
1 54135U 22138Y   23295.94625565  .00000364  00000+0  87788-3 0  9990
2 54135  87.9191 137.6889 0002067  77.6454 282.4910 13.19724669 49125
ONEWEB-0518             
1 54136U 22138Z   23296.11681707  .00000032  00000+0  48000-4 0  9998
2 54136  87.9190 137.6541 0001854  85.3969 274.7375 13.19727048 50013
ONEWEB-0519             
1 54137U 22138AA  23295.83884081  .00002311  00000+0  57404-2 0  9995
2 54137  87.9181 137.7070 0002847  83.2219 276.9238 13.19716105 49113
ONEWEB-0520             
1 54138U 22138AB  23295.79777058  .00000149  00000+0  34018-3 0  9990
2 54138  87.9188 137.7181 0002026  67.3051 292.8296 13.19727159 49099
ONEWEB-0521             
1 54139U 22138AC  23295.83093917  .00000143  00000+0  32552-3 0  9996
2 54139  87.9188 137.7080 0001950  90.6901 269.4455 13.19724228 49042
ONEWEB-0522             
1 54140U 22138AD  23296.11366544 -.00000019  00000+0 -79107-4 0  9991
2 54140  87.9189 137.6541 0001655  77.5895 282.5423 13.19726641 49990
ONEWEB-0523             
1 54141U 22138AE  23295.93496867  .00000889  00000+0  21533-2 0  9994
2 54141  87.9149 107.1969 0001400 130.4673 229.6582 13.20770084 51492
ONEWEB-0524             
1 54142U 22138AF  23295.92235969  .00000016  00000+0  79633-5 0  9997
2 54142  87.9180 107.1853 0000491  77.1903 282.9285 13.20772680 51498
ONEWEB-0525             
1 54143U 22138AG  23295.82934140 -.00000233  00000+0 -61505-3 0  9994
2 54143  87.9192 137.7128 0001936  72.8367 287.2978 13.19725200 49103
ONEWEB-0526             
1 54144U 22138AH  23295.93834612  .00000077  00000+0  16046-3 0  9994
2 54144  87.9190 137.6908 0001628  76.3467 283.7847 13.19727026 49097
ONEWEB-0529             
1 54145U 22138AJ  23295.86568626  .00000538  00000+0  13109-2 0  9994
2 54145  87.9189 137.7037 0002119  69.3004 290.8356 13.19722843 49103
ONEWEB-0531             
1 54146U 22138AK  23295.90973160  .00000100  00000+0  21310-3 0  9992
2 54146  87.9191 107.1719 0000904 129.3729 230.7484 13.20772867 51499
